[{"OBJECT_NAME":"STARLINK-32832","OBJECT_ID":"2025-034M","EPOCH":"2026-03-09T22:17:33.097920","MEAN_MOTION":15.30206514,"ECCENTRICITY":0.00010809,"INCLINATION":53.1586,"RA_OF_ASC_NODE":256.9969,"ARG_OF_PERICENTER":91.3439,"MEAN_ANOMALY":268.7685,"EPHEMERIS_TYPE":0,"CLASSIFICATION_TYPE":"U","NORAD_CAT_ID":63040,"ELEMENT_SET_NO":999,"REV_AT_EPOCH":5912,"BSTAR":0.0010898265,"MEAN_MOTION_DOT":0.00032064,"MEAN_MOTION_DDOT":0},{"OBJECT_NAME":"TRANSPORTER-1 OBJECT M","OBJECT_ID":"2021-006M","EPOCH":"2026-03-09T22:05:37.843296","MEAN_MOTION":15.3227845,"ECCENTRICITY":0.00102759,"INCLINATION":97.2377,"RA_OF_ASC_NODE":116.7915,"ARG_OF_PERICENTER":187.5492,"MEAN_ANOMALY":172.5597,"EPHEMERIS_TYPE":0,"CLASSIFICATION_TYPE":"U","NORAD_CAT_ID":47424,"ELEMENT_SET_NO":999,"REV_AT_EPOCH":28439,"BSTAR":0.00023985652,"MEAN_MOTION_DOT":7.411e-5,"MEAN_MOTION_DDOT":0}]
